#aV2009 11 26  0  0   .00000000      96 DD+AD WGS84 FIT  NGA
## 1559 345600.00000000   900.00000000 55161  .0000000000000
+   32     1  2  3  4  5  6  7  8  9 10 11 12 13 14 15 16 17
+         18 19 20 21 22 23 24 25 26 27 28 29 30 31 32  0  0
+          0  0  0  0  0  0  0  0  0  0  0  0  0  0  0  0  0
+          0  0  0  0  0  0  0  0  0  0  0  0  0  0  0  0  0
+          0  0  0  0  0  0  0  0  0  0  0  0  0  0  0  0  0
++         0  0  0  0  0  0  0  0  0  0  0  0  0  0  0  0  0
++         0  0  0  0  0  0  0  0  0  0  0  0  0  0  0  0  0
++         0  0  0  0  0  0  0  0  0  0  0  0  0  0  0  0  0
++         0  0  0  0  0  0  0  0  0  0  0  0  0  0  0  0  0
++         0  0  0  0  0  0  0  0  0  0  0  0  0  0  0  0  0
%c cc cc ccc ccc cccc cccc cccc cccc ccccc ccccc ccccc ccccc
%c cc cc ccc ccc cccc cccc cccc cccc ccccc ccccc ccccc ccccc
%f  0.0000000  0.000000000  0.00000000000  0.000000000000000
%f  0.0000000  0.000000000  0.00000000000  0.000000000000000
%i    0    0    0    0      0      0      0      0         0
%i    0    0    0    0      0      0      0      0         0
/*      NGA, ST. LOUIS,MO.                                  
/*   EPHEMERIS COMPUTED FROM  3 DAYS OF DATA                
/* CCCCCCCCCCCCCCCCCCCCCCCCCCCCCCCCCCCCCCCCCCCCCCCCCCCCCCCCC
/* CCCCCCCCCCCCCCCCCCCCCCCCCCCCCCCCCCCCCCCCCCCCCCCCCCCCCCCCC
*  2009 11 26  8 45   .00000000                                                 
P  1  15904.743059  12176.423066  17392.097036    -67.321525                    
V  1   4332.817183  21874.080116 -19062.171210      -.023841                    
P  2  -4320.429825  15011.205401  21406.883968    196.158085                    
V  2 -26528.722040  -6964.301133   -898.573667       .045960                    
P  3   6374.991322 -22770.906005 -12089.345004    479.659831                    
V  3  11957.981805  -9714.111104  25682.466126       .051482                    
P  4 -17432.612958   8872.162887  17968.017517   -377.391677                    
V  4 -21815.926255  -7706.578694 -16841.440289      -.183697                    
P  5   1553.286027  25409.182149   7417.105976    -38.107552                    
V  5  -5107.330160  -8410.650288  29904.001968       .062323                    
P  6  11027.947922 -22234.087413  -9140.874362    262.688268                    
V  6  10563.763853  -6529.812702  28181.224624       .012148                    
P  7 -25715.101140  -6982.703342     84.865208      7.048312                    
V  7    740.210379  -2288.537212  31849.857077      -.006792                    
P  8 -23943.806454    223.944673 -12073.846160       .181846                    
V  8 -13878.658066  -5944.291572  26964.856198       .004792                    
P  9  15028.324491  15014.242691 -16632.202651     90.623897                    
V  9 -19601.884505  -3276.906652 -21486.907131       .022614                    
P 10  -1993.346223  23935.316447  10776.937549    -29.147693                    
V 10  -6135.174206 -12982.409336  27615.099546      -.008056                    
P 11 -18928.128527 -12415.538686 -14409.018033    -31.134241                    
V 11  18102.247977  -2645.027525 -21499.925600      -.019120                    
P 12  11113.265972  23136.622808   7149.169772   -184.840354                    
V 12     30.004584   9256.396008 -30106.648872       .052333                    
P 13 -18667.676289    168.141085  18774.360175    306.391904                    
V 13  17377.921782 -16607.041996  17297.986753       .001269                    
P 14  21493.672079 -14073.053885  -6333.822122    -19.707828                    
V 14  -4694.878621   7057.787185 -31055.845875       .047836                    
P 15   -918.983500  19355.060731 -18096.422718   -319.508531                    
V 15 -17288.832353  15399.352634  17405.986792       .007263                    
P 16   4446.862587 -22085.383750  13912.337545    -12.673910                    
V 16   6211.922604  16673.847050  24806.397878      -.042243                    
P 17 -21168.002287  14747.134154  -5772.506407    105.980040                    
V 17   3343.352856  -7297.336137 -30712.038795       .036000                    
P 18  16377.932508   6075.918679 -19851.483133     30.340848                    
V 18   4928.591205  25289.916114  11288.722275       .027615                    
P 19    223.090046 -18113.239787 -19290.758217      -.686851                    
V 19  19681.398361 -14963.455200  14524.204518      -.019907                    
P 20 -14098.354956 -19743.745653  10747.944320     66.781935                    
V 20  -1090.237633 -14137.596237 -27025.383991      -.008493                    
P 21  26188.360146   4272.090087  -4115.731542    -23.732544                    
V 21   4449.038555   4498.383426  30162.375969      -.023891                    
P 22  13817.904442  -8321.111117 -20926.666155    185.418894                    
V 22   6900.191281  26168.512736  -5878.876752      -.007046                    
P 23 -10508.519902 -10732.759807  21877.155063    385.446557                    
V 23  19897.217724 -19440.557602   -275.338861      -.006145                    
P 24  20967.874705  13469.403589   8925.800193    239.736407                    
V 24 -11667.449534   -554.201373  28842.899740       .031863                    
P 25 -23743.391545  -9239.331715   7495.881911     33.111315                    
V 25   9369.336049   -849.422677  30196.162359       .139691                    
P 26  21893.065287  -6914.695691 -14296.176263      1.474776                    
V 26 -12094.585360  11980.118402 -24822.295697      -.021997                    
P 27  12331.913252  14758.871853 -17654.923094    103.091636                    
V 27 -23566.009752  -3383.071691 -18517.186278       .032890                    
P 28 -14047.698758   4943.009755 -21530.666261    -25.164385                    
V 28  -6791.159098 -27592.349880  -2169.546532       .002749                    
P 29  17069.057896   3287.111661  20158.456912     77.227264                    
V 29 -17713.148909  18260.085362  12114.255973       .029081                    
P 30  16004.599081  13970.057031  15591.621323    196.410533                    
V 30   4106.630318  20199.436982 -21721.150843       .032364                    
P 31  14863.275102  -9972.022638  19885.713541    -60.220110                    
V 31  23620.879878   7271.722303 -14017.972545       .008720                    
P 32  -7880.295729 -25154.967001   4767.613387    150.359701                    
V 32   1413.670895  -5875.398098 -30820.182491      -.076433                    
EOF
